{"type": "FeatureCollection", "features": [ {"type": "Feature", "properties": {"norad_id": 45358, "name": "COSMOS 2545 (760)", "group": "glo-ops", "lat": 42.01336181961983, "lon": -15.44485861974908, "alt_km": 19153.35893273758, "timestamp": "2025-12-09T16:56:36.835965+00:00", "meta": {"OBJECT_NAME": "COSMOS 2545 (760)", "OBJECT_ID": "2020-018A", "EPOCH": "2025-12-09T04:10:52.430880", "MEAN_MOTION": 2.13102242, "ECCENTRICITY": 0.0011894, "INCLINATION": 64.4718, "RA_OF_ASC_NODE": 319.095, "ARG_OF_PERICENTER": 248.7657, "MEAN_ANOMALY": 111.1032, "EPHEMERIS_TYPE": 0, "CLASSIFICATION_TYPE": "U", "NORAD_CAT_ID": 45358, "ELEMENT_SET_NO": 999, "REV_AT_EPOCH": 4461, "BSTAR": 0, "MEAN_MOTION_DOT": -5e-07, "MEAN_MOTION_DDOT": 0}, "tle": {"line1": "1 45358U 20018A   25343.17421795 -.00000050  00000+0  00000+0 0  9993", "line2": "2 45358  64.4718 319.0950 0011894 248.7657 111.1032  2.13102242 44617"}}, "geometry": {"type": "Point", "coordinates": [-15.44485861974908, 42.01336181961983]}}, {"type": "Feature", "properties": {"norad_id": 46805, "name": "COSMOS 2547 (705K)", "group": "glo-ops", "lat": -63.861596497815086, "lon": 94.374783524495, "alt_km": 19123.108710686673, "timestamp": "2025-12-09T16:56:36.835976+00:00", "meta": {"OBJECT_NAME": "COSMOS 2547 (705K)", "OBJECT_ID": "2020-075A", "EPOCH": "2025-12-08T21:25:56.196192", "MEAN_MOTION": 2.13099854, "ECCENTRICITY": 0.00063847, "INCLINATION": 64.5958, "RA_OF_ASC_NODE": 198.8249, "ARG_OF_PERICENTER": 229.7163, "MEAN_ANOMALY": 130.3027, "EPHEMERIS_TYPE": 0, "CLASSIFICATION_TYPE": "U", "NORAD_CAT_ID": 46805, "ELEMENT_SET_NO": 999, "REV_AT_EPOCH": 3985, "BSTAR": 0, "MEAN_MOTION_DOT": 4.5e-07, "MEAN_MOTION_DDOT": 0}, "tle": {"line1": "1 46805U 20075A   25342.89301153  .00000045  00000+0  00000+0 0  9990", "line2": "2 46805  64.5958 198.8249 0006384 229.7163 130.3027  2.13099854 39856"}}, "geometry": {"type": "Point", "coordinates": [94.374783524495, -63.861596497815086]}}, {"type": "Feature", "properties": {"norad_id": 52984, "name": "COSMOS 2557 (706K)", "group": "glo-ops", "lat": 38.23209729517508, "lon": 118.97293594522101, "alt_km": 19152.394210953535, "timestamp": "2025-12-09T16:56:36.835988+00:00", "meta": {"OBJECT_NAME": "COSMOS 2557 (706K)", "OBJECT_ID": "2022-075A", "EPOCH": "2025-12-07T04:21:00.419904", "MEAN_MOTION": 2.13101754, "ECCENTRICITY": 0.00137049, "INCLINATION": 64.4129, "RA_OF_ASC_NODE": 321.247, "ARG_OF_PERICENTER": 276.9, "MEAN_ANOMALY": 82.939, "EPHEMERIS_TYPE": 0, "CLASSIFICATION_TYPE": "U", "NORAD_CAT_ID": 52984, "ELEMENT_SET_NO": 999, "REV_AT_EPOCH": 2662, "BSTAR": 0, "MEAN_MOTION_DOT": -5.2e-07, "MEAN_MOTION_DDOT": 0}, "tle": {"line1": "1 52984U 22075A   25341.18125486 -.00000052  00000+0  00000+0 0  9990", "line2": "2 52984  64.4129 321.2470 0013704 276.9000  82.9390  2.13101754 26625"}}, "geometry": {"type": "Point", "coordinates": [118.97293594522101, 38.23209729517508]}}, {"type": "Feature", "properties": {"norad_id": 54031, "name": "COSMOS 2559 (707K)", "group": "glo-ops", "lat": -63.78357025279953, "lon": -115.68821074151872, "alt_km": 19132.886174999938, "timestamp": "2025-12-09T16:56:36.835999+00:00", "meta": {"OBJECT_NAME": "COSMOS 2559 (707K)", "OBJECT_ID": "2022-130A", "EPOCH": "2025-12-09T08:19:17.556672", "MEAN_MOTION": 2.13101277, "ECCENTRICITY": 0.0011892, "INCLINATION": 64.3842, "RA_OF_ASC_NODE": 321.2605, "ARG_OF_PERICENTER": 192.5792, "MEAN_ANOMALY": 167.3889, "EPHEMERIS_TYPE": 0, "CLASSIFICATION_TYPE": "U", "NORAD_CAT_ID": 54031, "ELEMENT_SET_NO": 999, "REV_AT_EPOCH": 2464, "BSTAR": 0, "MEAN_MOTION_DOT": -5.2e-07, "MEAN_MOTION_DDOT": 0}, "tle": {"line1": "1 54031U 22130A   25343.34673098 -.00000052  00000+0  00000+0 0  9994", "line2": "2 54031  64.3842 321.2605 0011892 192.5792 167.3889  2.13101277 24649"}}, "geometry": {"type": "Point", "coordinates": [-115.68821074151872, -63.78357025279953]}}, {"type": "Feature", "properties": {"norad_id": 54377, "name": "COSMOS 2564 (761)", "group": "glo-ops", "lat": 31.291147077315753, "lon": -144.3175462832698, "alt_km": 19148.0740361822, "timestamp": "2025-12-09T16:56:36.836011+00:00", "meta": {"OBJECT_NAME": "COSMOS 2564 (761)", "OBJECT_ID": "2022-161A", "EPOCH": "2025-12-09T04:34:58.856736", "MEAN_MOTION": 2.13102019, "ECCENTRICITY": 0.0008644, "INCLINATION": 64.7379, "RA_OF_ASC_NODE": 199.0169, "ARG_OF_PERICENTER": 205.3114, "MEAN_ANOMALY": 154.7201, "EPHEMERIS_TYPE": 0, "CLASSIFICATION_TYPE": "U", "NORAD_CAT_ID": 54377, "ELEMENT_SET_NO": 999, "REV_AT_EPOCH": 2358, "BSTAR": 0, "MEAN_MOTION_DOT": 4.4e-07, "MEAN_MOTION_DDOT": 0}, "tle": {"line1": "1 54377U 22161A   25343.19095899  .00000044  00000+0  00000+0 0  9991", "line2": "2 54377  64.7379 199.0169 0008644 205.3114 154.7201  2.13102019 23584"}}, "geometry": {"type": "Point", "coordinates": [-144.3175462832698, 31.291147077315753]}}, {"type": "Feature", "properties": {"norad_id": 57517, "name": "COSMOS 2569 (703K)", "group": "glo-ops", "lat": 22.416157338318175, "lon": 90.00415102936797, "alt_km": 19130.91184717503, "timestamp": "2025-12-09T16:56:36.836022+00:00", "meta": {"OBJECT_NAME": "COSMOS 2569 (703K)", "OBJECT_ID": "2023-114A", "EPOCH": "2025-12-09T04:54:16.689312", "MEAN_MOTION": 2.13103889, "ECCENTRICITY": 0.0010394, "INCLINATION": 65.1923, "RA_OF_ASC_NODE": 79.033, "ARG_OF_PERICENTER": 287.0321, "MEAN_ANOMALY": 72.8717, "EPHEMERIS_TYPE": 0, "CLASSIFICATION_TYPE": "U", "NORAD_CAT_ID": 57517, "ELEMENT_SET_NO": 999, "REV_AT_EPOCH": 1821, "BSTAR": 0, "MEAN_MOTION_DOT": -1.4e-07, "MEAN_MOTION_DDOT": 0}, "tle": {"line1": "1 57517U 23114A   25343.20435983 -.00000014  00000+0  00000+0 0  9991", "line2": "2 57517  65.1923  79.0330 0010394 287.0321  72.8717  2.13103889 18214"}}, "geometry": {"type": "Point", "coordinates": [90.00415102936797, 22.416157338318175]}}, {"type": "Feature", "properties": {"norad_id": 63130, "name": "COSMOS 2584 (704K)", "group": "glo-ops", "lat": 57.3281619625915, "lon": -147.40812809634167, "alt_km": 19128.205973694377, "timestamp": "2025-12-09T16:56:36.836033+00:00", "meta": {"OBJECT_NAME": "COSMOS 2584 (704K)", "OBJECT_ID": "2025-042A", "EPOCH": "2025-12-08T03:39:29.178720", "MEAN_MOTION": 2.13102925, "ECCENTRICITY": 0.0007602, "INCLINATION": 64.9737, "RA_OF_ASC_NODE": 79.3022, "ARG_OF_PERICENTER": 215.9611, "MEAN_ANOMALY": 144.0025, "EPHEMERIS_TYPE": 0, "CLASSIFICATION_TYPE": "U", "NORAD_CAT_ID": 63130, "ELEMENT_SET_NO": 999, "REV_AT_EPOCH": 597, "BSTAR": 0, "MEAN_MOTION_DOT": -1.2e-07, "MEAN_MOTION_DDOT": 0}, "tle": {"line1": "1 63130U 25042A   25342.15242105 -.00000012  00000+0  00000+0 0  9994", "line2": "2 63130  64.9737  79.3022 0007602 215.9611 144.0025  2.13102925  5976"}}, "geometry": {"type": "Point", "coordinates": [-147.40812809634167, 57.3281619625915]}}, {"type": "Feature", "properties": {"norad_id": 65590, "name": "COSMOS 2596 (708K)", "group": "glo-ops", "lat": -44.029932355606775, "lon": 168.70999425731742, "alt_km": 19126.267718697436, "timestamp": "2025-12-09T16:56:36.836044+00:00", "meta": {"OBJECT_NAME": "COSMOS 2596 (708K)", "OBJECT_ID": "2025-206B", "EPOCH": "2025-12-09T12:39:23.935968", "MEAN_MOTION": 2.13100288, "ECCENTRICITY": 0.0014002, "INCLINATION": 64.7457, "RA_OF_ASC_NODE": 321.5852, "ARG_OF_PERICENTER": 305.6142, "MEAN_ANOMALY": 147.6815, "EPHEMERIS_TYPE": 0, "CLASSIFICATION_TYPE": "U", "NORAD_CAT_ID": 65590, "ELEMENT_SET_NO": 999, "REV_AT_EPOCH": 187, "BSTAR": 0, "MEAN_MOTION_DOT": -5.1e-07, "MEAN_MOTION_DDOT": 0}, "tle": {"line1": "1 65590U 25206B   25343.52736037 -.00000051  00000+0  00000+0 0  9995", "line2": "2 65590  64.7457 321.5852 0014002 305.6142 147.6815  2.13100288  1877"}}, "geometry": {"type": "Point", "coordinates": [168.70999425731742, -44.029932355606775]}}]}